STARLETTE               
1 07646U 75010A   22298.16709205 -.00000132  00000+0  86923-5 0  9998
2 07646  49.8248 318.2371 0205740 346.0661  13.4609 13.82314005410408
LAGEOS 1                
1 08820U 76039A   22298.08991417  .00000015  00000+0  00000+0 0  9999
2 08820 109.8522  83.3990 0045146 227.2620 225.2112  6.38664896828548
AJISAI (EGS)            
1 16908U 86061A   22297.88111619 -.00000105  00000+0 -51107-4 0  9997
2 16908  50.0088 281.0663 0011384  31.6972  49.8296 12.44497685314611
COSMOS 1989 (ETALON 1)  
1 19751U 89001C   22298.04698890  .00000094  00000+0  00000+0 0  9999
2 19751  64.3368 117.9273 0023857 213.4378 327.0083  2.13156271263066
COSMOS 2024 (ETALON 2)  
1 20026U 89039C   22297.64075795 -.00000043  00000+0  00000+0 0  9990
2 20026  65.5217 356.0076 0018644 218.6356 301.4548  2.13204302260111
LAGEOS 2                
1 22195U 92070B   22297.53787888 -.00000009  00000+0  00000+0 0  9991
2 22195  52.6804  28.2173 0138318 325.2605  16.3849  6.47293400709200
STELLA                  
1 22824U 93061B   22298.15706505 -.00000022  00000+0  10069-4 0  9993
2 22824  98.9570 322.3130 0007128 133.8461 321.7950 14.27394259515044
LARES                   
1 38077U 12006A   22297.70563515 -.00000067  00000+0 -17362-3 0  9994
2 38077  69.4953  46.5258 0011091 227.1724 132.8342 12.54930858490124
